KUIPER-00159            
1 67764U 26030A   26061.60357841  .00037775  00000+0  10875-2 0  9991
2 67764  51.8837 253.3323 0004364  26.1379 333.9827 15.35391051  4002
KUIPER-00160            
1 67765U 26030B   26061.60451356  .00034420  00000+0  99505-3 0  9990
2 67765  51.8798 253.3309 0004471  36.6188 323.5103 15.35304524  4007
KUIPER-00177            
1 67766U 26030C   26061.59400885  .00037493  00000+0  10531-2 0  9994
2 67766  51.8822 253.2666 0000630  18.2329 341.8680 15.36172004  4007
KUIPER-00178            
1 67767U 26030D   26061.60611100  .00024723  00000+0  72163-3 0  9993
2 67767  51.8821 253.3450 0005676  27.9828 332.1462 15.35172791  4008
KUIPER-00180            
1 67768U 26030E   26061.63096165  .00032997  00000+0  10487-2 0  9997
2 67768  51.8800 253.4996 0015293  47.6517 312.5760 15.32221950  4004
KUIPER-00197            
1 67769U 26030F   26061.59592810  .00035076  00000+0  99020-3 0  9993
2 67769  51.8828 253.2800 0001127  54.0548 306.0543 15.36045998  4001
KUIPER-00198            
1 67770U 26030G   26061.60013689  .00033246  00000+0  95007-3 0  9997
2 67770  51.8801 253.3027 0002728  32.5589 327.5565 15.35688321  4004
KUIPER-00199            
1 67771U 26030H   26061.61885993  .00023493  00000+0  71097-3 0  9990
2 67771  51.8793 253.4216 0010306  41.0041 319.1718 15.34028024  4009
KUIPER-00200            
1 67772U 26030J   26061.58878816  .00046217  00000+0  12731-2 0  9991
2 67772  51.8807 253.2307 0001573 201.1052 158.9870 15.36682705  4004
KUIPER-00203            
1 67773U 26030K   26061.58335648 -.00182801  00000+0 -68768-2 0  9996
2 67773  51.8803 253.6784 0011949  42.5053  67.6047 15.27298861  2567
KUIPER-00205            
1 67774U 26030L   26061.59664690  .00034375  00000+0  97124-3 0  9999
2 67774  51.8804 253.2807 0002448   0.4377 359.6611 15.36028209  4006
KUIPER-00208            
1 67775U 26030M   26061.62913701  .00006999  00000+0  22824-3 0  9990
2 67775  51.8821 253.4955 0013990  44.8838 315.3276 15.32851116  4003
