CCSDS_OMM_VERS = 2.0
CREATION_DATE  = 
ORIGINATOR     = 

OBJECT_NAME    = KUIPER-00159
OBJECT_ID      = 2026-030A
CENTER_NAME    = EARTH
REF_FRAME      = TEME
TIME_SYSTEM    = UTC
MEAN_ELEMENT_THEORY = SGP/SGP4

EPOCH          = 2026-03-02T14:29:09.174624
MEAN_MOTION    = 15.35391051
ECCENTRICITY   = .00043647
INCLINATION    = 51.8837
RA_OF_ASC_NODE = 253.3323
ARG_OF_PERICENTER = 26.1379
MEAN_ANOMALY   = 333.9827

EPHEMERIS_TYPE = 0
CLASSIFICATION_TYPE = U
NORAD_CAT_ID   = 67764
ELEMENT_SET_NO = 999
REV_AT_EPOCH   = 400
BSTAR          = .10874812E-2
MEAN_MOTION_DOT = .37775E-3
MEAN_MOTION_DDOT = 0

CCSDS_OMM_VERS = 2.0
CREATION_DATE  = 
ORIGINATOR     = 

OBJECT_NAME    = KUIPER-00160
OBJECT_ID      = 2026-030B
CENTER_NAME    = EARTH
REF_FRAME      = TEME
TIME_SYSTEM    = UTC
MEAN_ELEMENT_THEORY = SGP/SGP4

EPOCH          = 2026-03-02T14:30:29.971584
MEAN_MOTION    = 15.35304524
ECCENTRICITY   = .00044712
INCLINATION    = 51.8798
RA_OF_ASC_NODE = 253.3309
ARG_OF_PERICENTER = 36.6188
MEAN_ANOMALY   = 323.5103

EPHEMERIS_TYPE = 0
CLASSIFICATION_TYPE = U
NORAD_CAT_ID   = 67765
ELEMENT_SET_NO = 999
REV_AT_EPOCH   = 400
BSTAR          = .99504772E-3
MEAN_MOTION_DOT = .3442E-3
MEAN_MOTION_DDOT = 0

CCSDS_OMM_VERS = 2.0
CREATION_DATE  = 
ORIGINATOR     = 

OBJECT_NAME    = KUIPER-00177
OBJECT_ID      = 2026-030C
CENTER_NAME    = EARTH
REF_FRAME      = TEME
TIME_SYSTEM    = UTC
MEAN_ELEMENT_THEORY = SGP/SGP4

EPOCH          = 2026-03-02T14:15:22.364640
MEAN_MOTION    = 15.36172004
ECCENTRICITY   = .00006307
INCLINATION    = 51.8822
RA_OF_ASC_NODE = 253.2666
ARG_OF_PERICENTER = 18.2329
MEAN_ANOMALY   = 341.8680

EPHEMERIS_TYPE = 0
CLASSIFICATION_TYPE = U
NORAD_CAT_ID   = 67766
ELEMENT_SET_NO = 999
REV_AT_EPOCH   = 400
BSTAR          = .10531131E-2
MEAN_MOTION_DOT = .37493E-3
MEAN_MOTION_DDOT = 0

CCSDS_OMM_VERS = 2.0
CREATION_DATE  = 
ORIGINATOR     = 

OBJECT_NAME    = KUIPER-00178
OBJECT_ID      = 2026-030D
CENTER_NAME    = EARTH
REF_FRAME      = TEME
TIME_SYSTEM    = UTC
MEAN_ELEMENT_THEORY = SGP/SGP4

EPOCH          = 2026-03-02T14:32:47.990400
MEAN_MOTION    = 15.35172791
ECCENTRICITY   = .0005676
INCLINATION    = 51.8821
RA_OF_ASC_NODE = 253.3450
ARG_OF_PERICENTER = 27.9828
MEAN_ANOMALY   = 332.1462

EPHEMERIS_TYPE = 0
CLASSIFICATION_TYPE = U
NORAD_CAT_ID   = 67767
ELEMENT_SET_NO = 999
REV_AT_EPOCH   = 400
BSTAR          = .72162537E-3
MEAN_MOTION_DOT = .24723E-3
MEAN_MOTION_DDOT = 0

CCSDS_OMM_VERS = 2.0
CREATION_DATE  = 
ORIGINATOR     = 

OBJECT_NAME    = KUIPER-00180
OBJECT_ID      = 2026-030E
CENTER_NAME    = EARTH
REF_FRAME      = TEME
TIME_SYSTEM    = UTC
MEAN_ELEMENT_THEORY = SGP/SGP4

EPOCH          = 2026-03-02T15:08:35.086560
MEAN_MOTION    = 15.32221950
ECCENTRICITY   = .00152936
INCLINATION    = 51.8800
RA_OF_ASC_NODE = 253.4996
ARG_OF_PERICENTER = 47.6517
MEAN_ANOMALY   = 312.5760

EPHEMERIS_TYPE = 0
CLASSIFICATION_TYPE = U
NORAD_CAT_ID   = 67768
ELEMENT_SET_NO = 999
REV_AT_EPOCH   = 400
BSTAR          = .10487275E-2
MEAN_MOTION_DOT = .32997E-3
MEAN_MOTION_DDOT = 0

CCSDS_OMM_VERS = 2.0
CREATION_DATE  = 
ORIGINATOR     = 

OBJECT_NAME    = KUIPER-00197
OBJECT_ID      = 2026-030F
CENTER_NAME    = EARTH
REF_FRAME      = TEME
TIME_SYSTEM    = UTC
MEAN_ELEMENT_THEORY = SGP/SGP4

EPOCH          = 2026-03-02T14:18:08.187840
MEAN_MOTION    = 15.36045998
ECCENTRICITY   = .00011276
INCLINATION    = 51.8828
RA_OF_ASC_NODE = 253.2800
ARG_OF_PERICENTER = 54.0548
MEAN_ANOMALY   = 306.0543

EPHEMERIS_TYPE = 0
CLASSIFICATION_TYPE = U
NORAD_CAT_ID   = 67769
ELEMENT_SET_NO = 999
REV_AT_EPOCH   = 400
BSTAR          = .99020065E-3
MEAN_MOTION_DOT = .35076E-3
MEAN_MOTION_DDOT = 0

CCSDS_OMM_VERS = 2.0
CREATION_DATE  = 
ORIGINATOR     = 

OBJECT_NAME    = KUIPER-00198
OBJECT_ID      = 2026-030G
CENTER_NAME    = EARTH
REF_FRAME      = TEME
TIME_SYSTEM    = UTC
MEAN_ELEMENT_THEORY = SGP/SGP4

EPOCH          = 2026-03-02T14:24:11.827296
MEAN_MOTION    = 15.35688321
ECCENTRICITY   = .0002728
INCLINATION    = 51.8801
RA_OF_ASC_NODE = 253.3027
ARG_OF_PERICENTER = 32.5589
MEAN_ANOMALY   = 327.5565

EPHEMERIS_TYPE = 0
CLASSIFICATION_TYPE = U
NORAD_CAT_ID   = 67770
ELEMENT_SET_NO = 999
REV_AT_EPOCH   = 400
BSTAR          = .95007065E-3
MEAN_MOTION_DOT = .33246E-3
MEAN_MOTION_DDOT = 0

CCSDS_OMM_VERS = 2.0
CREATION_DATE  = 
ORIGINATOR     = 

OBJECT_NAME    = KUIPER-00199
OBJECT_ID      = 2026-030H
CENTER_NAME    = EARTH
REF_FRAME      = TEME
TIME_SYSTEM    = UTC
MEAN_ELEMENT_THEORY = SGP/SGP4

EPOCH          = 2026-03-02T14:51:09.497952
MEAN_MOTION    = 15.34028024
ECCENTRICITY   = .00103062
INCLINATION    = 51.8793
RA_OF_ASC_NODE = 253.4216
ARG_OF_PERICENTER = 41.0041
MEAN_ANOMALY   = 319.1718

EPHEMERIS_TYPE = 0
CLASSIFICATION_TYPE = U
NORAD_CAT_ID   = 67771
ELEMENT_SET_NO = 999
REV_AT_EPOCH   = 400
BSTAR          = .71097171E-3
MEAN_MOTION_DOT = .23493E-3
MEAN_MOTION_DDOT = 0

CCSDS_OMM_VERS = 2.0
CREATION_DATE  = 
ORIGINATOR     = 

OBJECT_NAME    = KUIPER-00200
OBJECT_ID      = 2026-030J
CENTER_NAME    = EARTH
REF_FRAME      = TEME
TIME_SYSTEM    = UTC
MEAN_ELEMENT_THEORY = SGP/SGP4

EPOCH          = 2026-03-02T14:07:51.297024
MEAN_MOTION    = 15.36682705
ECCENTRICITY   = .00015738
INCLINATION    = 51.8807
RA_OF_ASC_NODE = 253.2307
ARG_OF_PERICENTER = 201.1052
MEAN_ANOMALY   = 158.9870

EPHEMERIS_TYPE = 0
CLASSIFICATION_TYPE = U
NORAD_CAT_ID   = 67772
ELEMENT_SET_NO = 999
REV_AT_EPOCH   = 400
BSTAR          = .12731007E-2
MEAN_MOTION_DOT = .46217E-3
MEAN_MOTION_DDOT = 0

CCSDS_OMM_VERS = 2.0
CREATION_DATE  = 
ORIGINATOR     = 

OBJECT_NAME    = KUIPER-00203
OBJECT_ID      = 2026-030K
CENTER_NAME    = EARTH
REF_FRAME      = TEME
TIME_SYSTEM    = UTC
MEAN_ELEMENT_THEORY = SGP/SGP4

EPOCH          = 2026-03-02T14:00:01.999872
MEAN_MOTION    = 15.27298861
ECCENTRICITY   = .00119495
INCLINATION    = 51.8803
RA_OF_ASC_NODE = 253.6784
ARG_OF_PERICENTER = 42.5053
MEAN_ANOMALY   = 67.6047

EPHEMERIS_TYPE = 0
CLASSIFICATION_TYPE = U
NORAD_CAT_ID   = 67773
ELEMENT_SET_NO = 999
REV_AT_EPOCH   = 256
BSTAR          = -.68768346E-2
MEAN_MOTION_DOT = -.182801E-2
MEAN_MOTION_DDOT = 0

CCSDS_OMM_VERS = 2.0
CREATION_DATE  = 
ORIGINATOR     = 

OBJECT_NAME    = KUIPER-00205
OBJECT_ID      = 2026-030L
CENTER_NAME    = EARTH
REF_FRAME      = TEME
TIME_SYSTEM    = UTC
MEAN_ELEMENT_THEORY = SGP/SGP4

EPOCH          = 2026-03-02T14:19:10.292160
MEAN_MOTION    = 15.36028209
ECCENTRICITY   = .00024486
INCLINATION    = 51.8804
RA_OF_ASC_NODE = 253.2807
ARG_OF_PERICENTER = 0.4377
MEAN_ANOMALY   = 359.6611

EPHEMERIS_TYPE = 0
CLASSIFICATION_TYPE = U
NORAD_CAT_ID   = 67774
ELEMENT_SET_NO = 999
REV_AT_EPOCH   = 400
BSTAR          = .97124226E-3
MEAN_MOTION_DOT = .34375E-3
MEAN_MOTION_DDOT = 0

CCSDS_OMM_VERS = 2.0
CREATION_DATE  = 
ORIGINATOR     = 

OBJECT_NAME    = KUIPER-00208
OBJECT_ID      = 2026-030M
CENTER_NAME    = EARTH
REF_FRAME      = TEME
TIME_SYSTEM    = UTC
MEAN_ELEMENT_THEORY = SGP/SGP4

EPOCH          = 2026-03-02T15:05:57.437664
MEAN_MOTION    = 15.32851116
ECCENTRICITY   = .00139904
INCLINATION    = 51.8821
RA_OF_ASC_NODE = 253.4955
ARG_OF_PERICENTER = 44.8838
MEAN_ANOMALY   = 315.3276

EPHEMERIS_TYPE = 0
CLASSIFICATION_TYPE = U
NORAD_CAT_ID   = 67775
ELEMENT_SET_NO = 999
REV_AT_EPOCH   = 400
BSTAR          = .22824366E-3
MEAN_MOTION_DOT = .6999E-4
MEAN_MOTION_DDOT = 0

